     3.04           N: GNSS NAV DATA    R: GLONASS          RINEX VERSION / TYPE
Spider V7.7.2.9082  BYGEO               20231026 145942 UTC PGM / RUN BY / DATE
    18    18  1929     7                                    LEAP SECONDS
                                                            END OF HEADER
R01 2023 10 26 14 15 00 6.846431642771D-05 0.000000000000D+00 3.967800000000D+05
    -7.367532714844D+03 1.995466232300D+00 1.862645149231D-09 0.000000000000D+00
    -1.605431494141D+04 1.541821479797D+00-9.313225746155D-10 1.000000000000D+00
     1.839456396484D+04 2.144516944885D+00-1.862645149231D-09 0.000000000000D+00
R19 2023 10 26 14 15 00-2.522952854633D-04-9.094947017729D-13 3.970200000000D+05
    -4.903620117188D+03 2.805910110474D-01-4.656612873077D-09 0.000000000000D+00
     2.500416113281D+04-1.360120773315D-01 4.656612873077D-09 3.000000000000D+00
     1.329989746094D+03 3.604874610901D+00 0.000000000000D+00 0.000000000000D+00
R09 2023 10 26 14 45 00 1.497780904174D-04 2.728484105319D-12 3.978000000000D+05
     7.911092285156D+03-2.641745567322D+00-1.862645149231D-09 0.000000000000D+00
     8.354552246094D+03 1.645090103149D+00 9.313225746155D-10-2.000000000000D+00
     2.278836181641D+04 3.068418502808D-01-2.793967723846D-09 0.000000000000D+00
R16 2023 10 26 14 45 00 2.004392445087D-05 0.000000000000D+00 3.978000000000D+05
    -1.018212109375D+04-1.970597267151D+00-1.862645149231D-09 0.000000000000D+00
     1.569932812500D+04 1.325935363770D+00 4.656612873077D-09-1.000000000000D+00
     1.732804785156D+04-2.363470077515D+00-1.862645149231D-09 0.000000000000D+00
R06 2023 10 26 14 45 00-1.348918303847D-04-1.818989403546D-12 3.978000000000D+05
     1.934876220703D+04-8.976659774780D-01-2.793967723846D-09 0.000000000000D+00
     1.455983691406D+04-6.395187377930D-01-0.000000000000D+00-4.000000000000D+00
    -7.993525390625D+03-3.347025871277D+00 9.313225746155D-10 0.000000000000D+00
R01 2023 10 26 14 45 00 6.846524775028D-05 0.000000000000D+00 3.978000000000D+05
    -3.230981445313D+03 2.572652816772D+00 9.313225746155D-10 0.000000000000D+00
    -1.334047509766D+04 1.432950019836D+00-1.862645149231D-09 1.000000000000D+00
     2.149328417969D+04 1.276145935059D+00-2.793967723846D-09 0.000000000000D+00
R18 2023 10 26 14 45 00 1.087943091989D-04 1.818989403546D-12 3.978000000000D+05
    -8.969617187500D+03 1.523494720459D-01-9.313225746155D-10 0.000000000000D+00
     1.362243017578D+04-2.685094833374D+00 3.725290298462D-09-3.000000000000D+00
     1.961738671875D+04 1.939912796021D+00-1.862645149231D-09 0.000000000000D+00
R07 2023 10 26 14 45 00 6.773043423891D-05 0.000000000000D+00 3.978000000000D+05
     2.245962011719D+04 1.170246124268D+00-1.862645149231D-09 0.000000000000D+00
     7.792801757813D+03 4.845275878906D-01-1.862645149231D-09 5.000000000000D+00
     9.202428222656D+03-3.283305168152D+00-9.313225746155D-10 0.000000000000D+00
R10 2023 10 26 14 45 00-9.806361049414D-05-0.000000000000D+00 3.978000000000D+05
     1.919142089844D+04-1.993576049805D+00-9.313225746155D-10 0.000000000000D+00
    -2.387407714844D+03 1.099911689758D+00-2.793967723846D-09-7.000000000000D+00
     1.658160156250D+04 2.471759796143D+00-1.862645149231D-09 0.000000000000D+00
R17 2023 10 26 14 45 00 2.923514693975D-05 2.728484105319D-12 3.978000000000D+05
    -1.045372070313D+04-3.629112243652D-02 9.313225746155D-10 0.000000000000D+00
    -4.072791015625D+03-3.137892723083D+00 0.000000000000D+00 4.000000000000D+00
     2.291768945313D+04-5.788516998291D-01-2.793967723846D-09 0.000000000000D+00
R08 2023 10 26 14 45 00-7.306039333344D-05 0.000000000000D+00 3.978000000000D+05
     1.426676269531D+04 2.518159866333D+00-0.000000000000D+00 0.000000000000D+00
    -3.225562988281D+03 1.348611831665D+00-1.862645149231D-09 6.000000000000D+00
     2.093858935547D+04-1.515343666077D+00-2.793967723846D-09 0.000000000000D+00
R19 2023 10 26 14 45 00-2.522971481085D-04-9.094947017729D-13 3.978000000000D+05
    -4.359787597656D+03 2.808132171631D-01-2.793967723846D-09 0.000000000000D+00
     2.393793164063D+04-1.042681694031D+00 5.587935447693D-09 3.000000000000D+00
     7.683608886719D+03 3.408899307251D+00-9.313225746155D-10 0.000000000000D+00
R11 2023 10 26 14 45 00-2.099908888340D-04-1.364242052659D-11 3.982500000000D+05
     2.181412841797D+04-8.365345001221D-02 9.313225746155D-10 1.000000000000D+00
    -1.323826220703D+04-1.457300186157D-01-4.656612873077D-09 0.000000000000D+00
    -1.832421875000D+01 3.570915222168D+00 0.000000000000D+00 0.000000000000D+00
